GLOBALSTAR M023 [+]     
1 25621U 99004A   23276.83667045 -.00000205  00000+0 -56304-3 0  9996
2 25621  52.0098 148.4001 0009485 185.2759 254.8930 12.62443253137210
GLOBALSTAR M040 [-]     
1 25622U 99004B   23277.38393382 -.00000044  00000+0  33208-3 0  9996
2 25622  51.9903 149.9825 0001353  87.2957  84.0072 12.61956226137040
GLOBALSTAR M036 [-]     
1 25623U 99004C   23276.78277045 -.00000081  00000+0  26899-4 0  9997
2 25623  51.9956  80.7666 0010172 303.9694 159.6502 11.86553916105091
GLOBALSTAR M038 [-]     
1 25624U 99004D   23276.66325032 -.00000086  00000+0  73122-4 0  9991
2 25624  51.9974  64.2960 0001824 169.3782 203.5994 12.32484999125612
GLOBALSTAR M022 [-]     
1 25649U 99012A   23277.16760194 -.00000017  00000+0  84484-3 0  9991
2 25649  52.0032 181.7906 0003284  30.1198 121.4717 12.02470062101628
GLOBALSTAR M041 [-]     
1 25650U 99012B   23276.68368242 -.00000071  00000+0  18223-3 0  9995
2 25650  52.0035  45.5755 0002387 153.7617 206.3341 11.96647572103759
GLOBALSTAR M046 [-]     
1 25651U 99012C   23276.84348963 -.00000070  00000+0  21089-3 0  9995
2 25651  52.0043 155.5206 0003007  83.5389 355.8717 12.09379291108362
GLOBALSTAR M037 [+]     
1 25652U 99012D   23277.01496274 -.00000047  00000+0  31641-3 0  9994
2 25652  51.9991 278.7163 0001495 250.4945 139.1090 12.62384375132749
